{
  "links" : {
    "next" : "https://api.nasa.gov/neo/rest/v1/feed?start_date=2004-09-16&end_date=2004-09-16&detailed=true&api_key=t0TVs3DtDT2H8Oy2Zy8m2eVrNsAVKAexjcZXUckd",
    "prev" : "https://api.nasa.gov/neo/rest/v1/feed?start_date=2004-09-14&end_date=2004-09-14&detailed=true&api_key=t0TVs3DtDT2H8Oy2Zy8m2eVrNsAVKAexjcZXUckd",
    "self" : "https://api.nasa.gov/neo/rest/v1/feed?start_date=2004-09-15&end_date=2004-09-15&detailed=true&api_key=t0TVs3DtDT2H8Oy2Zy8m2eVrNsAVKAexjcZXUckd"
  },
  "element_count" : 5,
  "near_earth_objects" : {
    "2004-09-15" : [ {
      "links" : {
        "self" : "https://api.nasa.gov/neo/rest/v1/neo/3661506?api_key=t0TVs3DtDT2H8Oy2Zy8m2eVrNsAVKAexjcZXUckd"
      },
      "neo_reference_id" : "3661506",
      "name" : "(2014 CR13)",
      "nasa_jpl_url" : "http://ssd.jpl.nasa.gov/sbdb.cgi?sstr=3661506",
      "absolute_magnitude_h" : 25.7,
      "estimated_diameter" : {
        "kilometers" : {
          "estimated_diameter_min" : 0.0192555078,
          "estimated_diameter_max" : 0.0430566244
        },
        "meters" : {
          "estimated_diameter_min" : 19.2555078188,
          "estimated_diameter_max" : 43.0566244241
        },
        "miles" : {
          "estimated_diameter_min" : 0.0119648141,
          "estimated_diameter_max" : 0.0267541378
        },
        "feet" : {
          "estimated_diameter_min" : 63.1742402722,
          "estimated_diameter_max" : 141.2618956756
        }
      },
      "is_potentially_hazardous_asteroid" : false,
      "close_approach_data" : [ {
        "close_approach_date" : "2004-09-15",
        "epoch_date_close_approach" : 1095231600000,
        "relative_velocity" : {
          "kilometers_per_second" : "17.1689889826",
          "kilometers_per_hour" : "61808.3603373164",
          "miles_per_hour" : "38405.3114551509"
        },
        "miss_distance" : {
          "astronomical" : "0.1949344071",
          "lunar" : "75.8294830322",
          "kilometers" : "29161774",
          "miles" : "18120286"
        },
        "orbiting_body" : "Earth"
      } ],
      "orbital_data" : {
        "orbit_id" : "16",
        "orbit_determination_date" : "2017-04-06 08:42:30",
        "orbit_uncertainty" : "6",
        "minimum_orbit_intersection" : ".00314568",
        "jupiter_tisserand_invariant" : "4.444",
        "epoch_osculation" : "2458000.5",
        "eccentricity" : ".4609669526818336",
        "semi_major_axis" : "1.484809066451164",
        "inclination" : "7.457694357863654",
        "ascending_node_longitude" : "141.6973857223307",
        "orbital_period" : "660.8522043670512",
        "perihelion_distance" : ".8003611557748129",
        "perihelion_argument" : "292.425177465536",
        "aphelion_distance" : "2.169256977127516",
        "perihelion_time" : "2457973.426505230426",
        "mean_anomaly" : "14.74831747952119",
        "mean_motion" : ".5447511525588382",
        "equinox" : "J2000"
      }
    }, {
      "links" : {
        "self" : "https://api.nasa.gov/neo/rest/v1/neo/3744560?api_key=t0TVs3DtDT2H8Oy2Zy8m2eVrNsAVKAexjcZXUckd"
      },
      "neo_reference_id" : "3744560",
      "name" : "(2016 DB)",
      "nasa_jpl_url" : "http://ssd.jpl.nasa.gov/sbdb.cgi?sstr=3744560",
      "absolute_magnitude_h" : 28.5,
      "estimated_diameter" : {
        "kilometers" : {
          "estimated_diameter_min" : 0.0053034072,
          "estimated_diameter_max" : 0.0118587791
        },
        "meters" : {
          "estimated_diameter_min" : 5.3034072332,
          "estimated_diameter_max" : 11.8587790858
        },
        "miles" : {
          "estimated_diameter_min" : 0.0032953835,
          "estimated_diameter_max" : 0.0073687014
        },
        "feet" : {
          "estimated_diameter_min" : 17.3996305869,
          "estimated_diameter_max" : 38.9067567758
        }
      },
      "is_potentially_hazardous_asteroid" : false,
      "close_approach_data" : [ {
        "close_approach_date" : "2004-09-15",
        "epoch_date_close_approach" : 1095231600000,
        "relative_velocity" : {
          "kilometers_per_second" : "12.8847437632",
          "kilometers_per_hour" : "46385.077547489",
          "miles_per_hour" : "28821.8833238828"
        },
        "miss_distance" : {
          "astronomical" : "0.3738761123",
          "lunar" : "145.4378051758",
          "kilometers" : "55931072",
          "miles" : "34753956"
        },
        "orbiting_body" : "Earth"
      } ],
      "orbital_data" : {
        "orbit_id" : "3",
        "orbit_determination_date" : "2017-04-06 08:28:08",
        "orbit_uncertainty" : "5",
        "minimum_orbit_intersection" : ".00100317",
        "jupiter_tisserand_invariant" : "6.618",
        "epoch_osculation" : "2458000.5",
        "eccentricity" : ".3249321174923065",
        "semi_major_axis" : ".8916551878557273",
        "inclination" : "2.882295691487752",
        "ascending_node_longitude" : "146.5247613632048",
        "orbital_period" : "307.5344963747085",
        "perihelion_distance" : ".6019277795927654",
        "perihelion_argument" : "232.7766581382644",
        "aphelion_distance" : "1.181382596118689",
        "perihelion_time" : "2457970.160876647113",
        "mean_anomaly" : "35.51498949155759",
        "mean_motion" : "1.17060038546494",
        "equinox" : "J2000"
      }
    } ]
  }
}